ANIK F1                 
1 26624U 00076A   17279.25613128 -.00000084  00000-0  00000+0 0  9999
2 26624   0.0134 184.3497 0003069 352.5115 183.1717  1.00270912 61889
ASTRA 2D                
1 26638U 00081A   17278.98677238  .00000042  00000-0  00000+0 0  9994
2 26638   3.8601  69.5060 0001653 118.2562 242.0295  1.00270062 61549
AMC-8 (GE-8)            
1 26639U 00081B   17279.76920911  .00000095  00000-0  00000-0 0  9990
2 26639   0.0403  75.4297 0002474 128.7637 309.3462  1.00271438 61505
SKYNET 4F               
1 26695U 01005B   17280.35289649 -.00000252  00000-0  00000+0 0  9997
2 26695   9.0221  35.8290 0003376 169.7034 263.7528  1.00271139 61048
EUTELSAT 33C            
1 26719U 01011A   17280.39424314  .00000145  00000-0  00000+0 0  9995
2 26719   0.0678   9.3917 0003635 205.0612 336.8067  1.00269894 60749
INTELSAT 10 (IS-10)     
1 26766U 01019A   17280.19571931  .00000117  00000-0  00000+0 0  9990
2 26766   1.7463  84.6114 0001751 126.0590 283.3374  1.00271458 60094
INTELSAT 901 (IS-901)   
1 26824U 01024A   17280.22715810 -.00000151  00000-0  00000+0 0  9990
2 26824   0.0257 266.5660 0002756 292.6380 240.6647  1.00271949 59768
ASTRA 2C                
1 26853U 01025A   17279.90254323  .00000037  00000-0  00000-0 0  9996
2 26853   0.6306  91.2636 0003655 102.0520 207.6513  1.00271705 13211
ARTEMIS                 
1 26863U 01029A   17279.70865404 -.00000369  00000-0  00000+0 0  9995
2 26863  12.8427  31.9175 0002088 203.8621 157.8743  1.00277914 60560
INTELSAT 902 (IS-902)   
1 26900U 01039A   17279.90254323  .00000023  00000-0  00000-0 0  9999
2 26900   0.0287 116.2305 0002962  86.1348 200.3083  1.00271973 58877
EUTELSAT 12 WEST B      
1 26927U 01042A   17280.22303292 -.00000110  00000-0  00000+0 0  9996
2 26927   0.0593   8.6896 0004892 203.7077 231.5097  1.00271736 58693
DIRECTV 4S              
1 26985U 01052A   17280.53799355 -.00000124  00000-0  00000+0 0  9999
2 26985   0.0105 218.3521 0003198 348.8162 261.7147  1.00271070 58169
ECHOSTAR 7              
1 27378U 02006A   17280.50356917 -.00000011  00000-0  00000+0 0  9991
2 27378   0.0423  74.4549 0001481 117.2683 247.1327  1.00272798 57232
INTELSAT 904 (IS-904)   
1 27380U 02007A   17279.25674317  .00000127  00000-0  00000-0 0  9990
2 27380   0.0159 155.8451 0002775  38.4147 318.3973  1.00269160 19924
TDRS 9                  
1 27389U 02011A   17280.22388785 -.00000104  00000-0  00000+0 0  9999
2 27389   5.4742  77.6870 0017737 234.2086 132.8521  1.00271973 58609
JCSAT 2A                
1 27399U 02015A   17280.45400510 -.00000345  00000-0  00000+0 0  9997
2 27399   0.7117  91.8901 0003048 129.6812  68.0163  1.00121763 56781
ASTRA 3A                
1 27400U 02015B   17280.27586882 -.00000288  00000-0  00000+0 0  9993
2 27400   4.0229  68.2126 0002871 145.2235 215.0099  1.00275181 56885
INTELSAT 903 (IS-903)   
1 27403U 02016A   17279.81295920 -.00000233  00000-0  00000-0 0  9996
2 27403   0.0775  94.3694 0002709  45.8672 136.6107  1.00271315 13831
NSS-7                   
1 27414U 02019A   17279.24434171 -.00000163  00000-0  00000-0 0  9993
2 27414   2.1204  82.4349 0002242 113.0759 247.5625  1.00273295 56725
DIRECTV 5 (TEMPO 1)     
1 27426U 02023A   17279.26386461 -.00000066  00000-0  00000+0 0  9992
2 27426   0.0154 248.6759 0003474 317.1881 154.1498  1.00271921 56467
INTELSAT 905 (IS-905)   
1 27438U 02027A   17279.85879281 -.00000194  00000-0  00000-0 0  9994
2 27438   0.0179 231.0869 0002802 314.2339 115.0808  1.00270579 19531
EXPRESS-A4              
1 27441U 02029A   17279.63931903 -.00000253  00000-0  00000-0 0  9992
2 27441   6.2442  55.7920 0006466 101.5848 233.5139  1.00267622 56121
GALAXY 3C (G-3C)        
1 27445U 02030A   17279.22210860 -.00000161  00000-0  00000+0 0  9992
2 27445   0.0224 273.1237 0001564  50.5596  36.3373  1.00270278 56118
EUTELSAT 5 WEST A       
1 27460U 02035A   17279.96994449 -.00000053  00000-0  00000+0 0  9997
2 27460   0.0190  15.5715 0005325 188.1409 156.2630  1.00269661 55915
N-STAR C                
1 27461U 02035B   17280.49424443 -.00000317  00000-0  00000+0 0  9993
2 27461   4.8359  64.1544 0003097  75.5148 190.6093  1.00270438 55827
EUTELSAT 36 WEST A      
1 27508U 02040A   17279.05873011 -.00000255  00000-0  00000+0 0  9991
2 27508   0.0774  31.8697 0002016 244.5483  83.5901  1.00269258 55408
METEOSAT-8 (MSG-1)      
1 27509U 02040B   17280.07703019  .00000134  00000-0  00000+0 0  9991
2 27509   5.0319  57.8708 0001567 257.4371 129.9447  1.00281434 55410
INTELSAT 906 (IS-906)   
1 27513U 02041A   17280.36438265  .00000004  00000-0  00000+0 0  9993
2 27513   0.0290 250.2887 0002822 304.3908  16.8749  1.00272543 55137
KALPANA-1 (METSAT 1)    
1 27525U 02043A   17278.90674893 -.00000082  00000-0  00000+0 0  9991
2 27525   6.5295  54.5018 0014129 225.2683 134.7139  1.00270687 55197
HISPASAT 1D             
1 27528U 02044A   17280.17126060 -.00000226  00000-0  00000+0 0  9995
2 27528   0.0447 324.2775 0003788 261.8015 181.5823  1.00273523 55113
TDRS 10                 
1 27566U 02055A   17279.60172758  .00000076  00000-0  00000-0 0  9993
2 27566   5.2230  57.8923 0008769 214.0908 145.9824  1.00279966 54392
NSS-6                   
1 27603U 02057A   17280.45335128 -.00000280  00000-0  00000+0 0  9991
2 27603   0.0412  95.2680 0002895 125.1106  54.1363  1.00270829 54254
NIMIQ 2                 
1 27632U 02062A   17278.93638984 -.00000238  00000-0  00000-0 0  9999
2 27632   2.2121  81.3740 0002154  43.6786 316.9294  1.00270826 12361
INTELSAT 907 (IS-907)   
1 27683U 03007A   17279.03501952 -.00000211  00000-0  00000+0 0  9991
2 27683   0.0124 219.0060 0002999 332.2163 168.8020  1.00272926 53543
GALAXY 12 (G-12)        
1 27715U 03013B   17280.49244640  .00000048  00000-0  00000+0 0  9991
2 27715   0.0294 119.9523 0002375  91.3412 213.3328  1.00272405 53175
ASIASAT 4               
1 27718U 03014A   17279.70882765 -.00000370  00000-0  00000-0 0  9993
2 27718   0.0097 174.1602 0000417 246.5658 332.1241  1.00269179 53089
HELLAS-SAT 2            
1 27811U 03020A   17280.39424314  .00000142  00000-0  00000+0 0  9998
2 27811   0.0442 202.7228 0006746  10.3608 344.1127  1.00274376 52509
AMC-9 (GE-12)           
1 27820U 03024A   17279.89720612 -.00000001  00000-0  00000+0 0  9990
2 27820   0.2096  89.7982 0026876 301.1278 193.6283  0.99997511 52494
THURAYA-2               
1 27825U 03026A   17280.07708354  .00000124  00000-0  00000+0 0  9993
2 27825   5.0174  29.5240 0005144 164.6879 253.4721  1.00273116 52518
OPTUS C1                
1 27831U 03028B   17280.44385253 -.00000157  00000-0  00000+0 0  9999
2 27831   0.0447 143.5343 0004514  48.7346 139.8326  1.00271325 52489
ECHOSTAR 12 (RAINBOW 1) 
1 27852U 03033A   17279.50740366 -.00000208  00000-0  00000-0 0  9991
2 27852   0.0394  82.7520 0001476 105.0602 283.8400  1.00270619 52141
GALAXY 23 (G-23)        
1 27854U 03034A   17280.49686000  .00000002  00000-0  00000+0 0  9998
2 27854   0.0018 184.6513 0002839  11.7644 237.8078  1.00272938 56716
EUTELSAT 33A            
1 27948U 03043A   17280.21920769  .00000144  00000-0  00000+0 0  9992
2 27948   2.5909  77.8443 0002625 233.4777 174.5334  1.00269573 51497
GALAXY 13 (HORIZONS-1)  
1 27954U 03044A   17279.61197282  .00000038  00000-0  00000+0 0  9990
2 27954   0.0144 138.1589 0001859  74.1622 256.4679  1.00270410 51312
ZHONGXING-20            
1 28082U 03052A   17279.84377413 -.00000333  00000-0  00000-0 0  9993
2 28082   3.7234  70.3389 0003336 161.9886 190.4129  1.00272269 50915
YAMAL 202               
1 28089U 03053A   17279.89702088  .00000109  00000-0  00000-0 0  9996
2 28089   0.0633  97.6042 0003086  90.2980 199.8227  1.00276096 50840
EXPRESS-AM22 (SESAT 2)  
1 28134U 03060A   17279.72410590 -.00000147  00000-0  00000-0 0  9994
2 28134   0.6782  90.8952 0000475 156.8601 108.6193  1.00271934 50436
AMC-10 (GE-10)          
1 28154U 04003A   17279.76434925  .00000078  00000-0  00000-0 0  9998
2 28154   0.0337  86.0064 0001879  69.8077 359.9726  1.00272711 50075
ABS-4 (MOBISAT-1)       
1 28184U 04007A   17279.90254323  .00000031  00000-0  00000-0 0  9992
2 28184   0.0236 256.2654 0001918 290.7861 214.6120  1.00273330 20498
EUTELSAT 7A             
1 28187U 04008A   17280.40847969  .00000038  00000-0  00000+0 0  9993
2 28187   0.0678  20.0382 0005881 178.6974 331.5748  1.00272680 49749
DIRECTV 7S              
1 28238U 04016A   17279.96993840 -.00000009  00000-0  00000+0 0  9997
2 28238   0.0055 148.0964 0003634  63.3158  34.5332  1.00271775 49226
AMC-11 (GE-11)          
1 28252U 04017A   17279.76434925  .00000059  00000-0  00000-0 0  9991
2 28252   0.0449  41.6872 0002767 159.3611 318.7408  1.00271334 49100
INTELSAT 10-02          
1 28358U 04022A   17280.40882689 -.00000021  00000-0  00000+0 0  9990
2 28358   0.0211 145.5360 0001490 159.8333 217.0941  1.00270207 48793
APSTAR 5 (TELSTAR 18)   
1 28364U 04024A   17279.94354677 -.00000304  00000-0  00000+0 0  9991
2 28364   0.0368 102.9199 0002844 102.1035 288.4449  1.00270542 48713
ANIK F2                 
1 28378U 04027A   17280.51531833 -.00000060  00000-0  00000+0 0  9994
2 28378   0.0524  75.5436 0000424 175.0770 200.2025  1.00271889 48524
AMC-15                  
1 28446U 04041A   17280.52563398 -.00000099  00000-0  00000+0 0  9990
2 28446   0.0460  49.5281 0002464 172.1821 238.8671  1.00271836 47557
AMC-16                  
1 28472U 04048A   17280.52823823 -.00000217  00000-0  00000+0 0  9990
2 28472   0.0428  47.1990 0002940 157.0582 277.2981  1.00271375 46981
NSS-10 (AMC-12)         
1 28526U 05003A   17280.42827192 -.00000261  00000-0  00000+0 0  9993
2 28526   0.0429 291.8111 0002980 271.6023 289.6009  1.00270680 46483
XTAR-EUR                
1 28542U 05005A   17278.87847849  .00000142  00000-0  00000+0 0  9997
2 28542   0.0273 106.4643 0003110 100.1521 153.3984  1.00273458 46333
